OBJECT_NAME,OBJECT_ID,EPOCH,MEAN_MOTION,ECCENTRICITY,INCLINATION,RA_OF_ASC_NODE,ARG_OF_PERICENTER,MEAN_ANOMALY,EPHEMERIS_TYPE,CLASSIFICATION_TYPE,NORAD_CAT_ID,ELEMENT_SET_NO,REV_AT_EPOCH,BSTAR,MEAN_MOTION_DOT,MEAN_MOTION_DDOT
STARLINK-5422,2022-175AY,2026-05-31T00:11:13.714368,15.08839395,.0001266,53.1926,19.0898,94.8723,265.2413,0,U,54804,999,19256,-.19584E-4,-.6E-5,0
STARLINK-5417,2022-175AZ,2026-05-31T04:00:01.998720,15.08019602,.000138,53.2164,18.6322,85.9811,289.3825,0,U,54805,999,579,.88936E-3,.13582E-3,0
STARLINK-5412,2022-175BA,2026-05-30T22:46:26.840064,15.08839976,.0001334,53.1956,19.4243,105.8061,254.3078,0,U,54806,999,19255,.61132E-4,.685E-5,0
STARLINK-5410,2022-175BB,2026-05-31T00:27:09.066816,15.08833651,.000123,53.1946,19.1489,87.6257,272.4876,0,U,54807,999,19256,.12013E-4,-.97E-6,0
STARLINK-5413,2022-175BC,2026-05-30T20:38:43.272384,15.08836782,.000152,53.1956,5.4015,92.2960,267.8206,0,U,54808,999,19274,-.41319E-4,-.946E-5,0
STARLINK-5414,2022-175BD,2026-05-31T00:16:32.437056,15.08835825,.0001417,53.1948,19.1054,77.4833,282.6317,0,U,54809,999,19256,-.19861E-3,-.3447E-4,0
STARLINK-5408,2022-175BE,2026-05-31T00:46:22.257984,15.08841823,.0001393,53.1971,14.2265,92.4341,267.6811,0,U,54810,999,19263,.64301E-4,.736E-5,0
STARLINK-5424,2022-175BF,2026-05-31T01:24:54.171648,15.08851466,.0001619,53.1956,14.3851,90.7422,269.3756,0,U,54811,999,19263,-.35372E-3,-.5915E-4,0
GAOFEN-11 04,2022-176A,2026-05-31T04:09:04.709088,15.23648465,.0007183,97.4210,284.5644,32.4877,327.6801,0,U,54818,999,19066,.32491E-3,.7724E-4,0
STARLINK-5382,2022-177A,2026-05-30T23:54:26.906400,15.27570646,.0001473,43.0061,31.0280,265.7778,94.2906,0,U,54820,999,18951,.17988E-3,.4689E-4,0
STARLINK-5385,2022-177B,2026-05-31T01:45:15.026976,15.27575013,.0001332,43.0065,30.7374,269.9622,90.1077,0,U,54821,999,18952,-.62699E-4,-.1987E-4,0
STARLINK-5101,2022-177C,2026-05-31T00:31:28.123392,15.27578364,.0001105,43.0024,31.2073,252.6746,107.3985,0,U,54822,999,18951,.24965E-4,.425E-5,0
STARLINK-5106,2022-177D,2026-05-31T01:34:08.940864,15.27582052,.0001771,43.0054,30.6802,261.8781,98.1870,0,U,54823,999,18952,.61971E-4,.1443E-4,0
STARLINK-4643,2022-177E,2026-05-31T00:05:33.262080,15.27565761,.0002574,43.0072,31.0729,243.0182,117.0407,0,U,54824,999,18951,-.13259E-4,-.627E-5,0
STARLINK-5107,2022-177G,2026-05-31T02:00:04.048416,15.27572328,.0001144,43.0016,30.8036,256.5544,103.5181,0,U,54826,999,18952,-.26866E-4,-.1001E-4,0
STARLINK-5383,2022-177H,2026-05-31T00:37:00.467904,15.27576853,.0001395,43.0023,31.2328,247.6821,112.3883,0,U,54827,999,18951,.18782E-4,.255E-5,0
STARLINK-5381,2022-177J,2026-05-31T00:42:33.641856,15.27576341,.0001665,43.0043,31.2603,241.2768,118.7916,0,U,54828,999,18951,.65454E-4,.1539E-4,0
STARLINK-5394,2022-177L,2026-05-31T00:57:20.968992,15.27596699,.0001463,43.0047,31.3361,254.6131,105.4559,0,U,54830,999,18951,-.15884E-3,-.4633E-4,0
STARLINK-5395,2022-177M,2026-05-31T01:50:48.797088,15.27578862,.0001509,43.0045,30.7580,242.4174,117.6524,0,U,54831,999,18952,-.77804E-4,-.2402E-4,0
STARLINK-5386,2022-177Q,2026-05-31T01:02:54.534336,15.27570489,.0001467,43.0072,31.3637,256.6915,103.3773,0,U,54834,999,18952,.63797E-4,.1493E-4,0
STARLINK-5389,2022-177R,2026-05-31T00:48:06.898752,15.27597468,.000048,43.0019,31.2960,259.8566,100.2232,0,U,54835,999,18951,-.1947E-3,-.5618E-4,0
STARLINK-5384,2022-177S,2026-05-31T00:35:03.477120,16.17643451,.0007796,42.9961,357.0730,278.5428,81.4573,0,U,54836,999,18991,.72573E-3,.1206805E-1,.10791E-2
STARLINK-5372,2022-177U,2026-05-31T00:41:25.204416,15.27573485,.0001404,43.0064,27.8484,261.8876,98.1817,0,U,54838,999,18955,.43084E-4,.923E-5,0
STARLINK-5368,2022-177W,2026-05-31T00:32:09.955680,15.27573479,.0000787,43.0031,27.7989,272.6180,87.4582,0,U,54840,999,18955,-.47112E-4,-.1558E-4,0
STARLINK-4659,2022-177X,2026-05-31T00:46:58.507104,15.27568820,.0001409,43.0060,27.8785,263.1231,96.9461,0,U,54841,999,18955,-.23811E-4,-.917E-5,0
STARLINK-5387,2022-177Y,2026-05-31T00:21:03.864384,15.27573822,.0001722,43.0033,27.7366,249.4002,110.6665,0,U,54842,999,18955,-.1743E-5,-.31E-5,0
STARLINK-5304,2022-177Z,2026-05-31T00:50:40.324416,15.27576295,.0001092,43.0022,27.8981,262.6261,97.4467,0,U,54843,999,18955,.14256E-4,.13E-5,0
STARLINK-5388,2022-177AA,2026-05-31T01:19:21.828000,15.27579053,.0001688,43.0063,30.5747,265.3411,94.7248,0,U,54844,999,18952,.46184E-4,.1009E-4,0
STARLINK-5082,2022-177AB,2026-05-31T00:26:37.117824,15.27588573,.0000709,43.0032,27.7732,244.1136,115.9642,0,U,54845,999,18955,.10921E-3,.2745E-4,0
STARLINK-5360,2022-177AC,2026-05-31T00:17:21.805152,15.27575695,.0001553,43.0045,27.7174,241.5798,118.4897,0,U,54846,999,18955,.14815E-4,.145E-5,0
