STARLINK-5422           
1 54804U 22175AY  26151.00779762 -.00000600  00000+0 -19584-4 0  9999
2 54804  53.1926  19.0898 0001266  94.8723 265.2413 15.08839395192569
STARLINK-5417           
1 54805U 22175AZ  26151.16668980  .00013582  00000+0  88936-3 0  9993
2 54805  53.2164  18.6322 0001380  85.9811 289.3825 15.08019602  5791
STARLINK-5412           
1 54806U 22175BA  26150.94892176  .00000685  00000+0  61132-4 0  9995
2 54806  53.1956  19.4243 0001334 105.8061 254.3078 15.08839976192556
STARLINK-5410           
1 54807U 22175BB  26151.01885494 -.00000097  00000+0  12013-4 0  9992
2 54807  53.1946  19.1489 0001230  87.6257 272.4876 15.08833651192566
STARLINK-5413           
1 54808U 22175BC  26150.86022306 -.00000946  00000+0 -41319-4 0  9995
2 54808  53.1956   5.4015 0001520  92.2960 267.8206 15.08836782192749
STARLINK-5414           
1 54809U 22175BD  26151.01148654 -.00003447  00000+0 -19861-3 0  9994
2 54809  53.1948  19.1054 0001417  77.4833 282.6317 15.08835825192560
STARLINK-5408           
1 54810U 22175BE  26151.03220206  .00000736  00000+0  64301-4 0  9998
2 54810  53.1971  14.2265 0001393  92.4341 267.6811 15.08841823192637
STARLINK-5424           
1 54811U 22175BF  26151.05896032 -.00005915  00000+0 -35372-3 0  9998
2 54811  53.1956  14.3851 0001619  90.7422 269.3756 15.08851466192636
GAOFEN-11 04            
1 54818U 22176A   26151.17297117  .00007724  00000+0  32491-3 0  9995
2 54818  97.4210 284.5644 0007183  32.4877 327.6801 15.23648465190667
STARLINK-5382           
1 54820U 22177A   26150.99614475  .00004689  00000+0  17988-3 0  9999
2 54820  43.0061  31.0280 0001473 265.7778  94.2906 15.27570646189513
STARLINK-5385           
1 54821U 22177B   26151.07309059 -.00001987  00000+0 -62699-4 0  9999
2 54821  43.0065  30.7374 0001332 269.9622  90.1077 15.27575013189524
STARLINK-5101           
1 54822U 22177C   26151.02185328  .00000425  00000+0  24965-4 0  9994
2 54822  43.0024  31.2073 0001105 252.6746 107.3985 15.27578364189516
STARLINK-5106           
1 54823U 22177D   26151.06538126  .00001443  00000+0  61971-4 0  9996
2 54823  43.0054  30.6802 0001771 261.8781  98.1870 15.27582052189523
STARLINK-4643           
1 54824U 22177E   26151.00385720 -.00000627  00000+0 -13259-4 0  9992
2 54824  43.0072  31.0729 0002574 243.0182 117.0407 15.27565761189510
STARLINK-5107           
1 54826U 22177G   26151.08338019 -.00001001  00000+0 -26866-4 0  9996
2 54826  43.0016  30.8036 0001144 256.5544 103.5181 15.27572328189528
STARLINK-5383           
1 54827U 22177H   26151.02569986  .00000255  00000+0  18782-4 0  9996
2 54827  43.0023  31.2328 0001395 247.6821 112.3883 15.27576853189516
STARLINK-5381           
1 54828U 22177J   26151.02955604  .00001539  00000+0  65454-4 0  9997
2 54828  43.0043  31.2603 0001665 241.2768 118.7916 15.27576341189514
STARLINK-5394           
1 54830U 22177L   26151.03982603 -.00004633  00000+0 -15884-3 0  9991
2 54830  43.0047  31.3361 0001463 254.6131 105.4559 15.27596699189515
STARLINK-5395           
1 54831U 22177M   26151.07695367 -.00002402  00000+0 -77804-4 0  9997
2 54831  43.0045  30.7580 0001509 242.4174 117.6524 15.27578862189523
STARLINK-5386           
1 54834U 22177Q   26151.04368674  .00001493  00000+0  63797-4 0  9998
2 54834  43.0072  31.3637 0001467 256.6915 103.3773 15.27570489189524
STARLINK-5389           
1 54835U 22177R   26151.03341318 -.00005618  00000+0 -19470-3 0  9997
2 54835  43.0019  31.2960 0000480 259.8566 100.2232 15.27597468189516
STARLINK-5384           
1 54836U 22177S   26151.02434580  .01206805  10791-2  72573-3 0  9995
2 54836  42.9961 357.0730 0007796 278.5428  81.4573 16.17643451189913
STARLINK-5372           
1 54838U 22177U   26151.02876394  .00000923  00000+0  43084-4 0  9997
2 54838  43.0064  27.8484 0001404 261.8876  98.1817 15.27573485189556
STARLINK-5368           
1 54840U 22177W   26151.02233745 -.00001558  00000+0 -47112-4 0  9990
2 54840  43.0031  27.7989 0000787 272.6180  87.4582 15.27573479189556
STARLINK-4659           
1 54841U 22177X   26151.03262161 -.00000917  00000+0 -23811-4 0  9994
2 54841  43.0060  27.8785 0001409 263.1231  96.9461 15.27568820189553
STARLINK-5387           
1 54842U 22177Y   26151.01462806 -.00000310  00000+0 -17430-5 0  9999
2 54842  43.0033  27.7366 0001722 249.4002 110.6665 15.27573822189557
STARLINK-5304           
1 54843U 22177Z   26151.03518894  .00000130  00000+0  14256-4 0  9991
2 54843  43.0022  27.8981 0001092 262.6261  97.4467 15.27576295189553
STARLINK-5388           
1 54844U 22177AA  26151.05511375  .00001009  00000+0  46184-4 0  9992
2 54844  43.0063  30.5747 0001688 265.3411  94.7248 15.27579053189527
STARLINK-5082           
1 54845U 22177AB  26151.01848516  .00002745  00000+0  10921-3 0  9996
2 54845  43.0032  27.7732 0000709 244.1136 115.9642 15.27588573189552
STARLINK-5360           
1 54846U 22177AC  26151.01205793  .00000145  00000+0  14815-4 0  9990
2 54846  43.0045  27.7174 0001553 241.5798 118.4897 15.27575695189551
